{"fetched_at":"2026-07-13T07:47:52.862Z","source":"https://celestrak.org/NORAD/elements/gp.php?GROUP=kuiper&FORMAT=JSON","constellation":"kuiper","records":[{"OBJECT_NAME":"KUIPER-00517","OBJECT_ID":"2026-140J","EPOCH":"2026-07-12T14:05:40.691328","CLASSIFICATION_TYPE":"U","MEAN_MOTION":15.38784525,"ECCENTRICITY":0.0010576,"INCLINATION":51.8775,"RA_OF_ASC_NODE":275.71,"ARG_OF_PERICENTER":281.2681,"MEAN_ANOMALY":78.7118,"EPHEMERIS_TYPE":0,"NORAD_CAT_ID":69600,"ELEMENT_SET_NO":999,"REV_AT_EPOCH":514,"BSTAR":0.00044128,"MEAN_MOTION_DOT":0.00016857,"MEAN_MOTION_DDOT":0},{"OBJECT_NAME":"KUIPER-00520","OBJECT_ID":"2026-140K","EPOCH":"2026-07-12T13:04:19.200288","CLASSIFICATION_TYPE":"U","MEAN_MOTION":15.37615748,"ECCENTRICITY":0.0006893,"INCLINATION":51.8829,"RA_OF_ASC_NODE":276.1796,"ARG_OF_PERICENTER":347.2646,"MEAN_ANOMALY":12.8166,"EPHEMERIS_TYPE":0,"NORAD_CAT_ID":69601,"ELEMENT_SET_NO":999,"REV_AT_EPOCH":513,"BSTAR":0.00045865,"MEAN_MOTION_DOT":0.00016855,"MEAN_MOTION_DDOT":0},{"OBJECT_NAME":"KUIPER-00522","OBJECT_ID":"2026-140L","EPOCH":"2026-07-12T10:53:33.164448","CLASSIFICATION_TYPE":"U","MEAN_MOTION":15.38612345,"ECCENTRICITY":0.0013053,"INCLINATION":51.8796,"RA_OF_ASC_NODE":276.3223,"ARG_OF_PERICENTER":258.012,"MEAN_ANOMALY":101.9404,"EPHEMERIS_TYPE":0,"NORAD_CAT_ID":69602,"ELEMENT_SET_NO":999,"REV_AT_EPOCH":512,"BSTAR":0.0004263989,"MEAN_MOTION_DOT":0.00016196,"MEAN_MOTION_DDOT":0},{"OBJECT_NAME":"KUIPER-00528","OBJECT_ID":"2026-140M","EPOCH":"2026-07-12T14:41:25.270656","CLASSIFICATION_TYPE":"U","MEAN_MOTION":15.37466391,"ECCENTRICITY":0.0006373,"INCLINATION":51.8788,"RA_OF_ASC_NODE":275.8726,"ARG_OF_PERICENTER":354.1957,"MEAN_ANOMALY":5.8955,"EPHEMERIS_TYPE":0,"NORAD_CAT_ID":69603,"ELEMENT_SET_NO":999,"REV_AT_EPOCH":514,"BSTAR":0.00038264,"MEAN_MOTION_DOT":0.0001392,"MEAN_MOTION_DDOT":0},{"OBJECT_NAME":"KUIPER-00532","OBJECT_ID":"2026-140N","EPOCH":"2026-07-12T13:21:47.259072","CLASSIFICATION_TYPE":"U","MEAN_MOTION":15.36593902,"ECCENTRICITY":0.0005509,"INCLINATION":51.8801,"RA_OF_ASC_NODE":276.247,"ARG_OF_PERICENTER":24.5719,"MEAN_ANOMALY":335.5529,"EPHEMERIS_TYPE":0,"NORAD_CAT_ID":69604,"ELEMENT_SET_NO":999,"REV_AT_EPOCH":513,"BSTAR":0.00027904,"MEAN_MOTION_DOT":0.00009751,"MEAN_MOTION_DDOT":0},{"OBJECT_NAME":"KUIPER-00533","OBJECT_ID":"2026-140P","EPOCH":"2026-07-12T14:20:30.498144","CLASSIFICATION_TYPE":"U","MEAN_MOTION":15.38248717,"ECCENTRICITY":0.0007949,"INCLINATION":51.8808,"RA_OF_ASC_NODE":275.7759,"ARG_OF_PERICENTER":316.7126,"MEAN_ANOMALY":43.3236,"EPHEMERIS_TYPE":0,"NORAD_CAT_ID":69605,"ELEMENT_SET_NO":999,"REV_AT_EPOCH":514,"BSTAR":0.00081563,"MEAN_MOTION_DOT":0.00030982,"MEAN_MOTION_DDOT":0},{"OBJECT_NAME":"KUIPER-00534","OBJECT_ID":"2026-140Q","EPOCH":"2026-07-12T10:46:22.995264","CLASSIFICATION_TYPE":"U","MEAN_MOTION":15.38687944,"ECCENTRICITY":0.00128729,"INCLINATION":51.882,"RA_OF_ASC_NODE":276.2971,"ARG_OF_PERICENTER":267.2445,"MEAN_ANOMALY":92.7069,"EPHEMERIS_TYPE":0,"NORAD_CAT_ID":69606,"ELEMENT_SET_NO":999,"REV_AT_EPOCH":512,"BSTAR":0.00064263489,"MEAN_MOTION_DOT":0.00024701,"MEAN_MOTION_DDOT":0},{"OBJECT_NAME":"KUIPER-00537","OBJECT_ID":"2026-140R","EPOCH":"2026-07-11T14:23:35.367360","CLASSIFICATION_TYPE":"U","MEAN_MOTION":15.34296234,"ECCENTRICITY":0.00110069,"INCLINATION":51.8811,"RA_OF_ASC_NODE":281.0851,"ARG_OF_PERICENTER":42.884,"MEAN_ANOMALY":317.3002,"EPHEMERIS_TYPE":0,"NORAD_CAT_ID":69607,"ELEMENT_SET_NO":999,"REV_AT_EPOCH":498,"BSTAR":0.00036402965,"MEAN_MOTION_DOT":0.00011929,"MEAN_MOTION_DDOT":0},{"OBJECT_NAME":"KUIPER-00538","OBJECT_ID":"2026-140S","EPOCH":"2026-07-12T13:00:57.560832","CLASSIFICATION_TYPE":"U","MEAN_MOTION":15.37691608,"ECCENTRICITY":0.00069128,"INCLINATION":51.8813,"RA_OF_ASC_NODE":276.1626,"ARG_OF_PERICENTER":334.9005,"MEAN_ANOMALY":25.1645,"EPHEMERIS_TYPE":0,"NORAD_CAT_ID":69608,"ELEMENT_SET_NO":999,"REV_AT_EPOCH":513,"BSTAR":0.0002602778,"MEAN_MOTION_DOT":0.00009408,"MEAN_MOTION_DDOT":0},{"OBJECT_NAME":"KUIPER-00540","OBJECT_ID":"2026-140T","EPOCH":"2026-07-12T14:49:51.860640","CLASSIFICATION_TYPE":"U","MEAN_MOTION":15.36933306,"ECCENTRICITY":0.0006735,"INCLINATION":51.8824,"RA_OF_ASC_NODE":275.917,"ARG_OF_PERICENTER":14.4196,"MEAN_ANOMALY":345.6981,"EPHEMERIS_TYPE":0,"NORAD_CAT_ID":69609,"ELEMENT_SET_NO":999,"REV_AT_EPOCH":514,"BSTAR":0.00034513,"MEAN_MOTION_DOT":0.00012296,"MEAN_MOTION_DDOT":0},{"OBJECT_NAME":"KUIPER-00541","OBJECT_ID":"2026-140U","EPOCH":"2026-07-12T20:00:01.999008","CLASSIFICATION_TYPE":"U","MEAN_MOTION":15.383928,"ECCENTRICITY":0.0007738,"INCLINATION":51.8813,"RA_OF_ASC_NODE":274.6455,"ARG_OF_PERICENTER":315.7887,"MEAN_ANOMALY":271.5101,"EPHEMERIS_TYPE":0,"NORAD_CAT_ID":69610,"ELEMENT_SET_NO":999,"REV_AT_EPOCH":509,"BSTAR":-0.00043549,"MEAN_MOTION_DOT":-0.00017129,"MEAN_MOTION_DDOT":0},{"OBJECT_NAME":"KUIPER-00542","OBJECT_ID":"2026-140V","EPOCH":"2026-07-12T14:18:17.735040","CLASSIFICATION_TYPE":"U","MEAN_MOTION":15.3825467,"ECCENTRICITY":0.0007499,"INCLINATION":51.8789,"RA_OF_ASC_NODE":275.7678,"ARG_OF_PERICENTER":296.9324,"MEAN_ANOMALY":63.0896,"EPHEMERIS_TYPE":0,"NORAD_CAT_ID":69611,"ELEMENT_SET_NO":999,"REV_AT_EPOCH":514,"BSTAR":0.00068382,"MEAN_MOTION_DOT":0.00025895,"MEAN_MOTION_DDOT":0},{"OBJECT_NAME":"KUIPER-00543","OBJECT_ID":"2026-140W","EPOCH":"2026-07-12T11:48:50.605632","CLASSIFICATION_TYPE":"U","MEAN_MOTION":15.36803491,"ECCENTRICITY":0.00077995,"INCLINATION":51.8787,"RA_OF_ASC_NODE":276.5601,"ARG_OF_PERICENTER":25.6702,"MEAN_ANOMALY":334.467,"EPHEMERIS_TYPE":0,"NORAD_CAT_ID":69612,"ELEMENT_SET_NO":999,"REV_AT_EPOCH":512,"BSTAR":0.00047469651,"MEAN_MOTION_DOT":0.00017002,"MEAN_MOTION_DDOT":0},{"OBJECT_NAME":"KUIPER-00544","OBJECT_ID":"2026-140X","EPOCH":"2026-07-12T14:24:28.639008","CLASSIFICATION_TYPE":"U","MEAN_MOTION":15.38141343,"ECCENTRICITY":0.0006694,"INCLINATION":51.8786,"RA_OF_ASC_NODE":275.796,"ARG_OF_PERICENTER":311.079,"MEAN_ANOMALY":48.9618,"EPHEMERIS_TYPE":0,"NORAD_CAT_ID":69613,"ELEMENT_SET_NO":999,"REV_AT_EPOCH":514,"BSTAR":0.00033899,"MEAN_MOTION_DOT":0.00012564,"MEAN_MOTION_DDOT":0},{"OBJECT_NAME":"KUIPER-00546","OBJECT_ID":"2026-140Y","EPOCH":"2026-07-12T10:47:17.138688","CLASSIFICATION_TYPE":"U","MEAN_MOTION":15.38834385,"ECCENTRICITY":0.00137146,"INCLINATION":51.8781,"RA_OF_ASC_NODE":276.2891,"ARG_OF_PERICENTER":257.6373,"MEAN_ANOMALY":102.308,"EPHEMERIS_TYPE":0,"NORAD_CAT_ID":69614,"ELEMENT_SET_NO":999,"REV_AT_EPOCH":512,"BSTAR":0.00048034216,"MEAN_MOTION_DOT":0.00018442,"MEAN_MOTION_DDOT":0},{"OBJECT_NAME":"KUIPER-00547","OBJECT_ID":"2026-140Z","EPOCH":"2026-07-12T12:41:52.926720","CLASSIFICATION_TYPE":"U","MEAN_MOTION":15.37875853,"ECCENTRICITY":0.00109544,"INCLINATION":51.8817,"RA_OF_ASC_NODE":276.0782,"ARG_OF_PERICENTER":279.391,"MEAN_ANOMALY":80.5839,"EPHEMERIS_TYPE":0,"NORAD_CAT_ID":69615,"ELEMENT_SET_NO":999,"REV_AT_EPOCH":513,"BSTAR":0.00040771924,"MEAN_MOTION_DOT":0.00015081,"MEAN_MOTION_DDOT":0}]}
